[{"OBJECT_NAME":"STARLINK-3120","OBJECT_ID":"2021-104M","EPOCH":"2026-03-09T18:14:03.876576","MEAN_MOTION":15.08840946,"ECCENTRICITY":0.00012402,"INCLINATION":53.2166,"RA_OF_ASC_NODE":228.8096,"ARG_OF_PERICENTER":91.1489,"MEAN_ANOMALY":268.9645,"EPHEMERIS_TYPE":0,"CLASSIFICATION_TYPE":"U","NORAD_CAT_ID":49419,"ELEMENT_SET_NO":999,"REV_AT_EPOCH":23863,"BSTAR":4.3680992e-5,"MEAN_MOTION_DOT":4.07e-6,"MEAN_MOTION_DDOT":0},{"OBJECT_NAME":"ELECTRON KICK STAGE R\/B","OBJECT_ID":"2023-196B","EPOCH":"2026-03-09T10:54:03.246336","MEAN_MOTION":15.12760744,"ECCENTRICITY":0.00189263,"INCLINATION":42.0179,"RA_OF_ASC_NODE":242.1679,"ARG_OF_PERICENTER":295.0915,"MEAN_ANOMALY":64.7951,"EPHEMERIS_TYPE":0,"CLASSIFICATION_TYPE":"U","NORAD_CAT_ID":58579,"ELEMENT_SET_NO":999,"REV_AT_EPOCH":12282,"BSTAR":0.00048326039,"MEAN_MOTION_DOT":8.466e-5,"MEAN_MOTION_DDOT":0}]
